{
  "type": "FeatureCollection",
  "features": [
    {
      "type": "Feature",
      "properties": {
        "norad_id": 46805,
        "name": "COSMOS 2547 (705K)",
        "group": "glo-ops",
        "lat": -55.469333941756965,
        "lon": 155.19160284840035,
        "alt_km": 19129.417438369423,
        "timestamp": "2025-12-07T09:35:10.051749+00:00",
        "meta_object_name": "COSMOS 2547 (705K)",
        "meta_object_id": "2020-075A",
        "meta_epoch": "2025-12-04T04:48:34.576416",
        "meta_mean_motion": 2.13099889,
        "meta_eccentricity": 0.0006264,
        "meta_inclination": 64.5958,
        "meta_ra_of_asc_node": 198.9817,
        "meta_arg_of_pericenter": 229.2044,
        "meta_mean_anomaly": 130.8379,
        "meta_ephemeris_type": 0,
        "meta_classification_type": "U",
        "meta_norad_cat_id": 46805,
        "meta_element_set_no": 999,
        "meta_rev_at_epoch": 3975,
        "meta_bstar": 0,
        "meta_mean_motion_dot": 1.01e-06,
        "meta_mean_motion_ddot": 0,
        "tle_line1": "1 46805U 20075A   25338.20040019  .00000101  00000+0  00000+0 0  9994",
        "tle_line2": "2 46805  64.5958 198.9817 0006264 229.2044 130.8379  2.13099889 39750"
      },
      "geometry": {
        "type": "Point",
        "coordinates": [
          155.19160284840035,
          -55.469333941756965
        ]
      }
    },
    {
      "type": "Feature",
      "properties": {
        "norad_id": 52984,
        "name": "COSMOS 2557 (706K)",
        "group": "glo-ops",
        "lat": 11.592806924094772,
        "lon": 135.58665808080252,
        "alt_km": 19140.72606674562,
        "timestamp": "2025-12-07T09:35:10.051760+00:00",
        "meta_object_name": "COSMOS 2557 (706K)",
        "meta_object_id": "2022-075A",
        "meta_epoch": "2025-12-06T05:49:32.114784",
        "meta_mean_motion": 2.13101746,
        "meta_eccentricity": 0.001371,
        "meta_inclination": 64.4134,
        "meta_ra_of_asc_node": 321.2801,
        "meta_arg_of_pericenter": 276.8497,
        "meta_mean_anomaly": 82.9895,
        "meta_ephemeris_type": 0,
        "meta_classification_type": "U",
        "meta_norad_cat_id": 52984,
        "meta_element_set_no": 999,
        "meta_rev_at_epoch": 2660,
        "meta_bstar": 0,
        "meta_mean_motion_dot": -5.1e-07,
        "meta_mean_motion_ddot": 0,
        "tle_line1": "1 52984U 22075A   25340.24273281 -.00000051  00000+0  00000+0 0  9992",
        "tle_line2": "2 52984  64.4134 321.2801 0013710 276.8497  82.9895  2.13101746 26604"
      },
      "geometry": {
        "type": "Point",
        "coordinates": [
          135.58665808080252,
          11.592806924094772
        ]
      }
    },
    {
      "type": "Feature",
      "properties": {
        "norad_id": 54031,
        "name": "COSMOS 2559 (707K)",
        "group": "glo-ops",
        "lat": -46.676493405023784,
        "lon": -69.25461386314278,
        "alt_km": 19147.667424685373,
        "timestamp": "2025-12-07T09:35:10.051772+00:00",
        "meta_object_name": "COSMOS 2559 (707K)",
        "meta_object_id": "2022-130A",
        "meta_epoch": "2025-12-03T17:10:26.893920",
        "meta_mean_motion": 2.13101235,
        "meta_eccentricity": 0.00120262,
        "meta_inclination": 64.3873,
        "meta_ra_of_asc_node": 321.4588,
        "meta_arg_of_pericenter": 192.7508,
        "meta_mean_anomaly": 167.2215,
        "meta_ephemeris_type": 0,
        "meta_classification_type": "U",
        "meta_norad_cat_id": 54031,
        "meta_element_set_no": 999,
        "meta_rev_at_epoch": 2452,
        "meta_bstar": 0,
        "meta_mean_motion_dot": -4.4e-07,
        "meta_mean_motion_ddot": 0,
        "tle_line1": "1 54031U 22130A   25337.71558905 -.00000044  00000+0  00000+0 0  9998",
        "tle_line2": "2 54031  64.3873 321.4588 0012026 192.7508 167.2215  2.13101235 24525"
      },
      "geometry": {
        "type": "Point",
        "coordinates": [
          -69.25461386314278,
          -46.676493405023784
        ]
      }
    },
    {
      "type": "Feature",
      "properties": {
        "norad_id": 54377,
        "name": "COSMOS 2564 (761)",
        "group": "glo-ops",
        "lat": 55.36670040424725,
        "lon": -117.78773791300044,
        "alt_km": 19140.78110403417,
        "timestamp": "2025-12-07T09:35:10.051783+00:00",
        "meta_object_name": "COSMOS 2564 (761)",
        "meta_object_id": "2022-161A",
        "meta_epoch": "2025-12-05T21:44:52.430496",
        "meta_mean_motion": 2.13101969,
        "meta_eccentricity": 0.00086841,
        "meta_inclination": 64.7377,
        "meta_ra_of_asc_node": 199.126,
        "meta_arg_of_pericenter": 205.8227,
        "meta_mean_anomaly": 154.2251,
        "meta_ephemeris_type": 0,
        "meta_classification_type": "U",
        "meta_norad_cat_id": 54377,
        "meta_element_set_no": 999,
        "meta_rev_at_epoch": 2351,
        "meta_bstar": 0,
        "meta_mean_motion_dot": 8e-07,
        "meta_mean_motion_ddot": 0,
        "tle_line1": "1 54377U 22161A   25339.90616239  .00000080  00000+0  00000+0 0  9992",
        "tle_line2": "2 54377  64.7377 199.1260 0008684 205.8227 154.2251  2.13101969 23515"
      },
      "geometry": {
        "type": "Point",
        "coordinates": [
          -117.78773791300044,
          55.36670040424725
        ]
      }
    },
    {
      "type": "Feature",
      "properties": {
        "norad_id": 57517,
        "name": "COSMOS 2569 (703K)",
        "group": "glo-ops",
        "lat": 48.27926126365183,
        "lon": 110.29171466806284,
        "alt_km": 19140.217139498658,
        "timestamp": "2025-12-07T09:35:10.051795+00:00",
        "meta_object_name": "COSMOS 2569 (703K)",
        "meta_object_id": "2023-114A",
        "meta_epoch": "2025-12-01T16:42:34.469856",
        "meta_mean_motion": 2.13103822,
        "meta_eccentricity": 0.0010109,
        "meta_inclination": 65.1883,
        "meta_ra_of_asc_node": 79.2867,
        "meta_arg_of_pericenter": 287.0179,
        "meta_mean_anomaly": 72.8703,
        "meta_ephemeris_type": 0,
        "meta_classification_type": "U",
        "meta_norad_cat_id": 57517,
        "meta_element_set_no": 999,
        "meta_rev_at_epoch": 1805,
        "meta_bstar": 0,
        "meta_mean_motion_dot": -1.6e-07,
        "meta_mean_motion_ddot": 0,
        "tle_line1": "1 57517U 23114A   25335.69623229 -.00000016  00000+0  00000+0 0  9999",
        "tle_line2": "2 57517  65.1883  79.2867 0010109 287.0179  72.8703  2.13103822 18055"
      },
      "geometry": {
        "type": "Point",
        "coordinates": [
          110.29171466806284,
          48.27926126365183
        ]
      }
    },
    {
      "type": "Feature",
      "properties": {
        "norad_id": 63130,
        "name": "COSMOS 2584 (704K)",
        "group": "glo-ops",
        "lat": 33.70262002311428,
        "lon": -118.79025790094467,
        "alt_km": 19120.155713119315,
        "timestamp": "2025-12-07T09:35:10.051806+00:00",
        "meta_object_name": "COSMOS 2584 (704K)",
        "meta_object_id": "2025-042A",
        "meta_epoch": "2025-12-05T08:05:04.392960",
        "meta_mean_motion": 2.13102926,
        "meta_eccentricity": 0.00075778,
        "meta_inclination": 64.9722,
        "meta_ra_of_asc_node": 79.3982,
        "meta_arg_of_pericenter": 214.8728,
        "meta_mean_anomaly": 145.0805,
        "meta_ephemeris_type": 0,
        "meta_classification_type": "U",
        "meta_norad_cat_id": 63130,
        "meta_element_set_no": 999,
        "meta_rev_at_epoch": 591,
        "meta_bstar": 0,
        "meta_mean_motion_dot": -2.1e-07,
        "meta_mean_motion_ddot": 0,
        "tle_line1": "1 63130U 25042A   25339.33685640 -.00000021  00000+0  00000+0 0  9995",
        "tle_line2": "2 63130  64.9722  79.3982 0007577 214.8728 145.0805  2.13102926  5915"
      },
      "geometry": {
        "type": "Point",
        "coordinates": [
          -118.79025790094467,
          33.70262002311428
        ]
      }
    },
    {
      "type": "Feature",
      "properties": {
        "norad_id": 65590,
        "name": "COSMOS 2596 (708K)",
        "group": "glo-ops",
        "lat": -63.203916620317855,
        "lon": -149.21451671124558,
        "alt_km": 19110.814381340228,
        "timestamp": "2025-12-07T09:35:10.051817+00:00",
        "meta_object_name": "COSMOS 2596 (708K)",
        "meta_object_id": "2025-206B",
        "meta_epoch": "2025-12-05T10:56:18.216960",
        "meta_mean_motion": 2.13100168,
        "meta_eccentricity": 0.00140237,
        "meta_inclination": 64.7483,
        "meta_ra_of_asc_node": 321.7274,
        "meta_arg_of_pericenter": 304.902,
        "meta_mean_anomaly": 264.8431,
        "meta_ephemeris_type": 0,
        "meta_classification_type": "U",
        "meta_norad_cat_id": 65590,
        "meta_element_set_no": 999,
        "meta_rev_at_epoch": 177,
        "meta_bstar": 0,
        "meta_mean_motion_dot": -5e-07,
        "meta_mean_motion_ddot": 0,
        "tle_line1": "1 65590U 25206B   25339.45576640 -.00000050  00000+0  00000+0 0  9993",
        "tle_line2": "2 65590  64.7483 321.7274 0014023 304.9020 264.8431  2.13100168  1778"
      },
      "geometry": {
        "type": "Point",
        "coordinates": [
          -149.21451671124558,
          -63.203916620317855
        ]
      }
    }
  ]
}